SL-8 R/B                
1 21088U 91006B   26115.78798955  .00000172  00000+0  15797-3 0  9999
2 21088  82.9399 135.0197 0020935 262.7568 270.5478 13.77504322770553
OKEAN-3                 
1 21397U 91039A   26115.88661217  .00003679  00000+0  25647-3 0  9999
2 21397  82.5135 291.0947 0014359 163.5873 196.5822 15.05053871872134
COSMOS 2151             
1 21422U 91042A   26115.90634879  .00001613  00000+0  12652-3 0  9997
2 21422  82.4988  38.1232 0010620 259.3147 100.6882 15.00294362870272
SL-14 R/B               
1 21423U 91042B   26115.61994570  .00000277  00000+0  31906-4 0  9992
2 21423  82.4945 176.1896 0018580  87.5752 272.7589 14.81869926860020
ERS-1                   
1 21574U 91050A   26115.89466512  .00000301  00000+0  11071-3 0  9996
2 21574  98.7835 135.3083 0032983  63.4211 297.0350 14.39483254822524
ARIANE 40 R/B           
1 21610U 91050F   26115.76406826  .00000209  00000+0  74978-4 0  9998
2 21610  98.1922 166.2117 0001831 302.7519  57.3495 14.42924792825784
INTERCOSMOS 25          
1 21819U 91086A   26115.87009956  .00000633  00000+0  12039-3 0  9993
2 21819  82.5992 281.4714 1485703  15.2490 348.8726 12.12129740502402
SL-8 R/B                
1 21876U 92008B   26115.85312770  .00000061  00000+0  46611-4 0  9999
2 21876  82.9278 232.6933 0034575   5.2251 108.8517 13.75970750715905
SL-8 R/B                
1 21938U 92020B   26115.77702723 -.00000043  00000+0 -60852-4 0  9999
2 21938  82.9269 118.7890 0029391 163.6205   9.0653 13.75548451707608
USA 81                  
1 21949U 92023A   26115.95222923  .00000193  00000+0  63913-4 0  9998
2 21949  85.0036 104.1567 0001349 103.5705 256.5638 14.32382570101553
COSMOS 2219             
1 22219U 92076A   26115.84479254  .00000385  00000+0  22672-3 0  9995
2 22219  71.0595 279.4911 0016826 132.3603 227.8948 14.14095892725040
SL-16 R/B               
1 22220U 92076B   26115.66709435 -.00000196  00000+0 -73792-4 0  9996
2 22220  70.9982  89.4155 0012066  13.1404 159.2988 14.16865451728487
COSMOS 2221             
1 22236U 92080A   26115.78300402  .00001576  00000+0  13659-3 0  9998
2 22236  82.5046 233.9601 0014983  39.5394 320.6918 14.96388480787837
SL-16 R/B               
1 22285U 92093B   26115.80566880  .00000351  00000+0  20429-3 0  9996
2 22285  71.0210 265.3535 0006148 245.8937 114.1543 14.15457616719824
COSMOS 2228             
1 22286U 92094A   26115.90129541  .00001840  00000+0  15548-3 0  9998
2 22286  82.5202 192.1134 0019039 139.8212 220.4423 14.97411242783123
SL-16 R/B               
1 22566U 93016B   26115.35608727 -.00000260  00000+0 -10895-3 0  9998
2 22566  71.0038 117.1704 0012577 255.2777 104.6952 14.15309940708772
COSMOS 2242             
1 22626U 93024A   26115.77052288  .00001687  00000+0  14494-3 0  9996
2 22626  82.5203 221.6775 0017284 143.3813 216.8595 14.96743392787438
