[{"OBJECT_NAME":"SL-8 R/B","OBJECT_ID":"1991-006B","EPOCH":"2026-04-25T18:54:42.297120","MEAN_MOTION":13.77504322,"ECCENTRICITY":0.00209358,"INCLINATION":82.9399,"RA_OF_ASC_NODE":135.0197,"ARG_OF_PERICENTER":262.7568,"MEAN_ANOMALY":270.5478,"EPHEMERIS_TYPE":0,"CLASSIFICATION_TYPE":"U","NORAD_CAT_ID":21088,"ELEMENT_SET_NO":999,"REV_AT_EPOCH":77055,"BSTAR":0.00015797074,"MEAN_MOTION_DOT":1.72e-6,"MEAN_MOTION_DDOT":0},{"OBJECT_NAME":"OKEAN-3","OBJECT_ID":"1991-039A","EPOCH":"2026-04-25T21:16:43.291488","MEAN_MOTION":15.05053871,"ECCENTRICITY":0.00143591,"INCLINATION":82.5135,"RA_OF_ASC_NODE":291.0947,"ARG_OF_PERICENTER":163.5873,"MEAN_ANOMALY":196.5822,"EPHEMERIS_TYPE":0,"CLASSIFICATION_TYPE":"U","NORAD_CAT_ID":21397,"ELEMENT_SET_NO":999,"REV_AT_EPOCH":87213,"BSTAR":0.00025647305,"MEAN_MOTION_DOT":3.679e-5,"MEAN_MOTION_DDOT":0},{"OBJECT_NAME":"COSMOS 2151","OBJECT_ID":"1991-042A","EPOCH":"2026-04-25T21:45:08.535456","MEAN_MOTION":15.00294362,"ECCENTRICITY":0.00106201,"INCLINATION":82.4988,"RA_OF_ASC_NODE":38.1232,"ARG_OF_PERICENTER":259.3147,"MEAN_ANOMALY":100.6882,"EPHEMERIS_TYPE":0,"CLASSIFICATION_TYPE":"U","NORAD_CAT_ID":21422,"ELEMENT_SET_NO":999,"REV_AT_EPOCH":87027,"BSTAR":0.00012651538,"MEAN_MOTION_DOT":1.613e-5,"MEAN_MOTION_DDOT":0},{"OBJECT_NAME":"SL-14 R/B","OBJECT_ID":"1991-042B","EPOCH":"2026-04-25T14:52:43.308480","MEAN_MOTION":14.81869926,"ECCENTRICITY":0.00185804,"INCLINATION":82.4945,"RA_OF_ASC_NODE":176.1896,"ARG_OF_PERICENTER":87.5752,"MEAN_ANOMALY":272.7589,"EPHEMERIS_TYPE":0,"CLASSIFICATION_TYPE":"U","NORAD_CAT_ID":21423,"ELEMENT_SET_NO":999,"REV_AT_EPOCH":86002,"BSTAR":3.1906296e-5,"MEAN_MOTION_DOT":2.77e-6,"MEAN_MOTION_DDOT":0},{"OBJECT_NAME":"ERS-1","OBJECT_ID":"1991-050A","EPOCH":"2026-04-25T21:28:19.066368","MEAN_MOTION":14.39483254,"ECCENTRICITY":0.00329838,"INCLINATION":98.7835,"RA_OF_ASC_NODE":135.3083,"ARG_OF_PERICENTER":63.4211,"MEAN_ANOMALY":297.035,"EPHEMERIS_TYPE":0,"CLASSIFICATION_TYPE":"U","NORAD_CAT_ID":21574,"ELEMENT_SET_NO":999,"REV_AT_EPOCH":82252,"BSTAR":0.0001107059,"MEAN_MOTION_DOT":3.01e-6,"MEAN_MOTION_DDOT":0},{"OBJECT_NAME":"ARIANE 40 R/B","OBJECT_ID":"1991-050F","EPOCH":"2026-04-25T18:20:15.497664","MEAN_MOTION":14.42924792,"ECCENTRICITY":0.00018317,"INCLINATION":98.1922,"RA_OF_ASC_NODE":166.2117,"ARG_OF_PERICENTER":302.7519,"MEAN_ANOMALY":57.3495,"EPHEMERIS_TYPE":0,"CLASSIFICATION_TYPE":"U","NORAD_CAT_ID":21610,"ELEMENT_SET_NO":999,"REV_AT_EPOCH":82578,"BSTAR":7.4978101e-5,"MEAN_MOTION_DOT":2.09e-6,"MEAN_MOTION_DDOT":0},{"OBJECT_NAME":"INTERCOSMOS 25","OBJECT_ID":"1991-086A","EPOCH":"2026-04-25T20:52:56.601984","MEAN_MOTION":12.1212974,"ECCENTRICITY":0.14857035,"INCLINATION":82.5992,"RA_OF_ASC_NODE":281.4714,"ARG_OF_PERICENTER":15.249,"MEAN_ANOMALY":348.8726,"EPHEMERIS_TYPE":0,"CLASSIFICATION_TYPE":"U","NORAD_CAT_ID":21819,"ELEMENT_SET_NO":999,"REV_AT_EPOCH":50240,"BSTAR":0.00012039466,"MEAN_MOTION_DOT":6.33e-6,"MEAN_MOTION_DDOT":0},{"OBJECT_NAME":"SL-8 R/B","OBJECT_ID":"1992-008B","EPOCH":"2026-04-25T20:28:30.233280","MEAN_MOTION":13.7597075,"ECCENTRICITY":0.00345752,"INCLINATION":82.9278,"RA_OF_ASC_NODE":232.6933,"ARG_OF_PERICENTER":5.2251,"MEAN_ANOMALY":108.8517,"EPHEMERIS_TYPE":0,"CLASSIFICATION_TYPE":"U","NORAD_CAT_ID":21876,"ELEMENT_SET_NO":999,"REV_AT_EPOCH":71590,"BSTAR":4.6611457e-5,"MEAN_MOTION_DOT":6.1e-7,"MEAN_MOTION_DDOT":0},{"OBJECT_NAME":"SL-8 R/B","OBJECT_ID":"1992-020B","EPOCH":"2026-04-25T18:38:55.152672","MEAN_MOTION":13.75548451,"ECCENTRICITY":0.00293912,"INCLINATION":82.9269,"RA_OF_ASC_NODE":118.789,"ARG_OF_PERICENTER":163.6205,"MEAN_ANOMALY":9.0653,"EPHEMERIS_TYPE":0,"CLASSIFICATION_TYPE":"U","NORAD_CAT_ID":21938,"ELEMENT_SET_NO":999,"REV_AT_EPOCH":70760,"BSTAR":-6.0852047e-5,"MEAN_MOTION_DOT":-4.3e-7,"MEAN_MOTION_DDOT":0},{"OBJECT_NAME":"USA 81","OBJECT_ID":"1992-023A","EPOCH":"2026-04-25T22:51:12.605472","MEAN_MOTION":14.3238257,"ECCENTRICITY":0.00013496,"INCLINATION":85.0036,"RA_OF_ASC_NODE":104.1567,"ARG_OF_PERICENTER":103.5705,"MEAN_ANOMALY":256.5638,"EPHEMERIS_TYPE":0,"CLASSIFICATION_TYPE":"U","NORAD_CAT_ID":21949,"ELEMENT_SET_NO":999,"REV_AT_EPOCH":10155,"BSTAR":6.3912674e-5,"MEAN_MOTION_DOT":1.93e-6,"MEAN_MOTION_DDOT":0},{"OBJECT_NAME":"COSMOS 2219","OBJECT_ID":"1992-076A","EPOCH":"2026-04-25T20:16:30.075456","MEAN_MOTION":14.14095892,"ECCENTRICITY":0.00168262,"INCLINATION":71.0595,"RA_OF_ASC_NODE":279.4911,"ARG_OF_PERICENTER":132.3603,"MEAN_ANOMALY":227.8948,"EPHEMERIS_TYPE":0,"CLASSIFICATION_TYPE":"U","NORAD_CAT_ID":22219,"ELEMENT_SET_NO":999,"REV_AT_EPOCH":72504,"BSTAR":0.0002267242,"MEAN_MOTION_DOT":3.85e-6,"MEAN_MOTION_DDOT":0},{"OBJECT_NAME":"SL-16 R/B","OBJECT_ID":"1992-076B","EPOCH":"2026-04-25T16:00:36.951840","MEAN_MOTION":14.16865451,"ECCENTRICITY":0.00120667,"INCLINATION":70.9982,"RA_OF_ASC_NODE":89.4155,"ARG_OF_PERICENTER":13.1404,"MEAN_ANOMALY":159.2988,"EPHEMERIS_TYPE":0,"CLASSIFICATION_TYPE":"U","NORAD_CAT_ID":22220,"ELEMENT_SET_NO":999,"REV_AT_EPOCH":72848,"BSTAR":-7.3792143e-5,"MEAN_MOTION_DOT":-1.96e-6,"MEAN_MOTION_DDOT":0},{"OBJECT_NAME":"COSMOS 2221","OBJECT_ID":"1992-080A","EPOCH":"2026-04-25T18:47:31.547328","MEAN_MOTION":14.9638848,"ECCENTRICITY":0.00149833,"INCLINATION":82.5046,"RA_OF_ASC_NODE":233.9601,"ARG_OF_PERICENTER":39.5394,"MEAN_ANOMALY":320.6918,"EPHEMERIS_TYPE":0,"CLASSIFICATION_TYPE":"U","NORAD_CAT_ID":22236,"ELEMENT_SET_NO":999,"REV_AT_EPOCH":78783,"BSTAR":0.00013659428,"MEAN_MOTION_DOT":1.576e-5,"MEAN_MOTION_DDOT":0},{"OBJECT_NAME":"SL-16 R/B","OBJECT_ID":"1992-093B","EPOCH":"2026-04-25T19:20:09.784320","MEAN_MOTION":14.15457616,"ECCENTRICITY":0.00061481,"INCLINATION":71.021,"RA_OF_ASC_NODE":265.3535,"ARG_OF_PERICENTER":245.8937,"MEAN_ANOMALY":114.1543,"EPHEMERIS_TYPE":0,"CLASSIFICATION_TYPE":"U","NORAD_CAT_ID":22285,"ELEMENT_SET_NO":999,"REV_AT_EPOCH":71982,"BSTAR":0.00020429232,"MEAN_MOTION_DOT":3.51e-6,"MEAN_MOTION_DDOT":0},{"OBJECT_NAME":"COSMOS 2228","OBJECT_ID":"1992-094A","EPOCH":"2026-04-25T21:37:51.923424","MEAN_MOTION":14.97411242,"ECCENTRICITY":0.0019039,"INCLINATION":82.5202,"RA_OF_ASC_NODE":192.1134,"ARG_OF_PERICENTER":139.8212,"MEAN_ANOMALY":220.4423,"EPHEMERIS_TYPE":0,"CLASSIFICATION_TYPE":"U","NORAD_CAT_ID":22286,"ELEMENT_SET_NO":999,"REV_AT_EPOCH":78312,"BSTAR":0.000155479,"MEAN_MOTION_DOT":1.84e-5,"MEAN_MOTION_DDOT":0},{"OBJECT_NAME":"SL-16 R/B","OBJECT_ID":"1993-016B","EPOCH":"2026-04-25T08:32:45.940128","MEAN_MOTION":14.1530994,"ECCENTRICITY":0.00125773,"INCLINATION":71.0038,"RA_OF_ASC_NODE":117.1704,"ARG_OF_PERICENTER":255.2777,"MEAN_ANOMALY":104.6952,"EPHEMERIS_TYPE":0,"CLASSIFICATION_TYPE":"U","NORAD_CAT_ID":22566,"ELEMENT_SET_NO":999,"REV_AT_EPOCH":70877,"BSTAR":-0.00010894921,"MEAN_MOTION_DOT":-2.6e-6,"MEAN_MOTION_DDOT":0},{"OBJECT_NAME":"COSMOS 2242","OBJECT_ID":"1993-024A","EPOCH":"2026-04-25T18:29:33.176832","MEAN_MOTION":14.96743392,"ECCENTRICITY":0.00172849,"INCLINATION":82.5203,"RA_OF_ASC_NODE":221.6775,"ARG_OF_PERICENTER":143.3813,"MEAN_ANOMALY":216.8595,"EPHEMERIS_TYPE":0,"CLASSIFICATION_TYPE":"U","NORAD_CAT_ID":22626,"ELEMENT_SET_NO":999,"REV_AT_EPOCH":78743,"BSTAR":0.00014494394,"MEAN_MOTION_DOT":1.687e-5,"MEAN_MOTION_DDOT":0}]
